start=new Date('2023-01-23T00:00:00.000Z').valueOf();
sats=[{"FILE":"3758014","ELEMENT_SET_NO":"999","GP_ID":"223595987","ECCENTRICITY":"0.00008020","MEAN_MOTION":"15.08850608","MEAN_ANOMALY":"298.7294","CLASSIFICATION_TYPE":"U","NORAD_CAT_ID":"53987","REF_FRAME":"TEME","LAUNCH_DATE":"2022-10-05","ARG_OF_PERICENTER":"61.3779","BSTAR":"0.00113160000000","MEAN_ELEMENT_THEORY":"SGP4","TLE_LINE2":"2 53987  53.2163 300.4403 0000802  61.3779 298.7294 15.08850608 17146","SEMIMAJOR_AXIS":"6917.848","EPOCH":"2023-01-22T19:15:43.098624","INCLINATION":"53.2163","CENTER_NAME":"EARTH","MEAN_MOTION_DDOT":"0.0000000000000","RCS_SIZE":"LARGE","PERIAPSIS":"539.158","OBJECT_ID":"2022-125Z","REV_AT_EPOCH":"1714","COUNTRY_CODE":"US","RA_OF_ASC_NODE":"300.4403","PERIOD":"95.437","OBJECT_TYPE":"PAYLOAD","TIME_SYSTEM":"UTC","DECAY_DATE":null,"SITE":"AFWTR","MEAN_MOTION_DOT":"0.00017773","APOAPSIS":"540.268","EPHEMERIS_TYPE":"0","TLE_LINE1":"1 53987U 22125Z   23022.80258216  .00017773  00000-0  11316-2 0  9994","OBJECT_NAME":"STARLINK-5112"},{"OBJECT_NAME":"STARLINK-5113","TLE_LINE1":"1 53988U 22125AA  23022.79521840  .00007115  00000-0  46544-3 0  9990","OBJECT_TYPE":"PAYLOAD","TIME_SYSTEM":"UTC","DECAY_DATE":null,"EPHEMERIS_TYPE":"0","APOAPSIS":"541.049","MEAN_MOTION_DOT":"0.00007115","SITE":"AFWTR","PERIAPSIS":"538.810","REV_AT_EPOCH":"1714","OBJECT_ID":"2022-125AA","COUNTRY_CODE":"US","PERIOD":"95.441","RA_OF_ASC_NODE":"300.4072","RCS_SIZE":"LARGE","INCLINATION":"53.2187","MEAN_ELEMENT_THEORY":"SGP4","TLE_LINE2":"2 53988  53.2187 300.4072 0001618  91.6103 268.5074 15.08779866 17145","SEMIMAJOR_AXIS":"6918.064","EPOCH":"2023-01-22T19:05:06.869760","CENTER_NAME":"EARTH","MEAN_MOTION_DDOT":"0.0000000000000","CLASSIFICATION_TYPE":"U","NORAD_CAT_ID":"53988","REF_FRAME":"TEME","ARG_OF_PERICENTER":"91.6103","BSTAR":"0.00046544000000","LAUNCH_DATE":"2022-10-05","ELEMENT_SET_NO":"999","MEAN_ANOMALY":"268.5074","GP_ID":"223596416","ECCENTRICITY":"0.00016180","MEAN_MOTION":"15.08779866","FILE":"3758014"},{"ELEMENT_SET_NO":"999","MEAN_ANOMALY":"293.6527","ECCENTRICITY":"0.00004740","GP_ID":"223595985","MEAN_MOTION":"15.08825071","FILE":"3758014","CENTER_NAME":"EARTH","MEAN_MOTION_DDOT":"0.0000000000000","INCLINATION":"53.2182","TLE_LINE2":"2 53989  53.2182 300.3345 0000474  66.4515 293.6527 15.08825071 17141","SEMIMAJOR_AXIS":"6917.926","EPOCH":"2023-01-22T18:50:34.834560","MEAN_ELEMENT_THEORY":"SGP4","REF_FRAME":"TEME","ARG_OF_PERICENTER":"66.4515","BSTAR":"-0.00016005000000","LAUNCH_DATE":"2022-10-05","CLASSIFICATION_TYPE":"U","NORAD_CAT_ID":"53989","COUNTRY_CODE":"US","RA_OF_ASC_NODE":"300.3345","PERIOD":"95.438","PERIAPSIS":"539.463","REV_AT_EPOCH":"1714","OBJECT_ID":"2022-125AB","RCS_SIZE":"LARGE","OBJECT_NAME":"STARLINK-5115","TLE_LINE1":"1 53989U 22125AB  23022.78512540 -.00002833  00000-0 -16005-3 0  9990","EPHEMERIS_TYPE":"0","APOAPSIS":"540.119","SITE":"AFWTR","MEAN_MOTION_DOT":"-0.00002833","TIME_SYSTEM":"UTC","OBJECT_TYPE":"PAYLOAD","DECAY_DATE":null},{"MEAN_ANOMALY":"299.1275","ECCENTRICITY":"0.00050130","GP_ID":"223587934","MEAN_MOTION":"15.08846169","ELEMENT_SET_NO":"999","FILE":"3757651","MEAN_MOTION_DDOT":"0.0000000000000","CENTER_NAME":"EARTH","INCLINATION":"53.2150","SEMIMAJOR_AXIS":"6917.862","TLE_LINE2":"2 53990  53.2150 301.8652 0005013  61.0219 299.1275 15.08846169 17097","EPOCH":"2023-01-22T11:02:50.980992","MEAN_ELEMENT_THEORY":"SGP4","ARG_OF_PERICENTER":"61.0219","BSTAR":"0.00049386000000","LAUNCH_DATE":"2022-10-05","REF_FRAME":"TEME","NORAD_CAT_ID":"53990","CLASSIFICATION_TYPE":"U","RA_OF_ASC_NODE":"301.8652","PERIOD":"95.437","COUNTRY_CODE":"US","REV_AT_EPOCH":"1709","OBJECT_ID":"2022-125AC","PERIAPSIS":"536.259","RCS_SIZE":"LARGE","OBJECT_NAME":"STARLINK-5075","TLE_LINE1":"1 53990U 22125AC  23022.46031228  .00007582  00000-0  49386-3 0  9998","APOAPSIS":"543.194","EPHEMERIS_TYPE":"0","SITE":"AFWTR","MEAN_MOTION_DOT":"0.00007582","DECAY_DATE":null,"OBJECT_TYPE":"PAYLOAD","TIME_SYSTEM":"UTC"},{"ELEMENT_SET_NO":"999","ECCENTRICITY":"0.00016500","GP_ID":"223596506","MEAN_MOTION":"15.07199795","MEAN_ANOMALY":"289.9850","FILE":"3758020","CENTER_NAME":"EARTH","MEAN_MOTION_DDOT":"0.0000000000000","SEMIMAJOR_AXIS":"6922.898","TLE_LINE2":"2 53991  53.2167 287.2023 0001650  70.1319 289.9850 15.07199795 17327","MEAN_ELEMENT_THEORY":"SGP4","EPOCH":"2023-01-22T17:34:50.820960","INCLINATION":"53.2167","REF_FRAME":"TEME","LAUNCH_DATE":"2022-10-05","BSTAR":"-0.00005806100000","ARG_OF_PERICENTER":"70.1319","NORAD_CAT_ID":"53991","CLASSIFICATION_TYPE":"U","COUNTRY_CODE":"US","RA_OF_ASC_NODE":"287.2023","PERIOD":"95.541","PERIAPSIS":"543.621","OBJECT_ID":"2022-125AD","REV_AT_EPOCH":"1732","RCS_SIZE":"LARGE","TLE_LINE1":"1 53991U 22125AD  23022.73253265 -.00001167  00000-0 -58061-4 0  9992","OBJECT_NAME":"STARLINK-5118","MEAN_MOTION_DOT":"-0.00001167","SITE":"AFWTR","APOAPSIS":"545.906","EPHEMERIS_TYPE":"0","TIME_SYSTEM":"UTC","OBJECT_TYPE":"PAYLOAD","DECAY_DATE":null},{"ELEMENT_SET_NO":"999","ECCENTRICITY":"0.00014590","GP_ID":"223596524","MEAN_MOTION":"15.08841043","MEAN_ANOMALY":"269.5124","FILE":"3758021","CENTER_NAME":"EARTH","MEAN_MOTION_DDOT":"0.0000000000000","TLE_LINE2":"2 53992  53.2166 300.3352 0001459  90.6035 269.5124 15.08841043 17147","SEMIMAJOR_AXIS":"6917.877","MEAN_ELEMENT_THEORY":"SGP4","EPOCH":"2023-01-22T18:49:10.837344","INCLINATION":"53.2166","REF_FRAME":"TEME","LAUNCH_DATE":"2022-10-05","BSTAR":"0.00010624000000","ARG_OF_PERICENTER":"90.6035","CLASSIFICATION_TYPE":"U","NORAD_CAT_ID":"53992","COUNTRY_CODE":"US","PERIOD":"95.437","RA_OF_ASC_NODE":"300.3352","PERIAPSIS":"538.733","OBJECT_ID":"2022-125AE","REV_AT_EPOCH":"1714","RCS_SIZE":"LARGE","TLE_LINE1":"1 53992U 22125AE  23022.78415321  .00001403  00000-0  10624-3 0  9994","OBJECT_NAME":"STARLINK-5108","SITE":"AFWTR","MEAN_MOTION_DOT":"0.00001403","EPHEMERIS_TYPE":"0","APOAPSIS":"540.752","OBJECT_TYPE":"PAYLOAD","TIME_SYSTEM":"UTC","DECAY_DATE":null},{"RCS_SIZE":"LARGE","PERIAPSIS":"538.617","OBJECT_ID":"2022-125AF","REV_AT_EPOCH":"1712","COUNTRY_CODE":"US","PERIOD":"95.437","RA_OF_ASC_NODE":"297.8660","TIME_SYSTEM":"UTC","OBJECT_TYPE":"PAYLOAD","DECAY_DATE":null,"MEAN_MOTION_DOT":"0.00000035","SITE":"AFWTR","APOAPSIS":"540.785","EPHEMERIS_TYPE":"0","TLE_LINE1":"1 53993U 22125AF  23022.16545236  .00000035  00000-0  20295-4 0  9992","OBJECT_NAME":"STARLINK-5121","FILE":"3757652","ELEMENT_SET_NO":"999","GP_ID":"223588053","ECCENTRICITY":"0.00015670","MEAN_MOTION":"15.08854373","MEAN_ANOMALY":"291.6381","NORAD_CAT_ID":"53993","CLASSIFICATION_TYPE":"U","REF_FRAME":"TEME","LAUNCH_DATE":"2022-10-05","BSTAR":"0.00002029500000","ARG_OF_PERICENTER":"68.4778","TLE_LINE2":"2 53993  53.2176 297.8660 0001567  68.4778 291.6381 15.08854373 17127","SEMIMAJOR_AXIS":"6917.836","EPOCH":"2023-01-22T03:58:15.083904","MEAN_ELEMENT_THEORY":"SGP4","INCLINATION":"53.2176","CENTER_NAME":"EARTH","MEAN_MOTION_DDOT":"0.0000000000000"},{"OBJECT_ID":"2022-125AG","REV_AT_EPOCH":"1714","PERIAPSIS":"539.136","RA_OF_ASC_NODE":"300.2724","PERIOD":"95.437","COUNTRY_CODE":"US","RCS_SIZE":"LARGE","TLE_LINE1":"1 53994U 22125AG  23022.77309895 -.00000486  00000-0 -12461-4 0  9997","OBJECT_NAME":"STARLINK-5125","DECAY_DATE":null,"OBJECT_TYPE":"PAYLOAD","TIME_SYSTEM":"UTC","SITE":"AFWTR","MEAN_MOTION_DOT":"-0.00000486","EPHEMERIS_TYPE":"0","APOAPSIS":"540.336","GP_ID":"223596522","MEAN_MOTION":"15.08843122","ECCENTRICITY":"0.00008670","MEAN_ANOMALY":"299.6174","ELEMENT_SET_NO":"999","FILE":"3758021","TLE_LINE2":"2 53994  53.2143 300.2724 0000867  60.4905 299.6174 15.08843122 17148","SEMIMAJOR_AXIS":"6917.871","EPOCH":"2023-01-22T18:33:15.749280","MEAN_ELEMENT_THEORY":"SGP4","INCLINATION":"53.2143","MEAN_MOTION_DDOT":"0.0000000000000","CENTER_NAME":"EARTH","NORAD_CAT_ID":"53994","CLASSIFICATION_TYPE":"U","LAUNCH_DATE":"2022-10-05","BSTAR":"-0.00001246100000","ARG_OF_PERICENTER":"60.4905","REF_FRAME":"TEME"},{"FILE":"3757653","MEAN_ANOMALY":"322.0992","GP_ID":"223588367","ECCENTRICITY":"0.00003180","MEAN_MOTION":"15.08856829","ELEMENT_SET_NO":"999","NORAD_CAT_ID":"53995","CLASSIFICATION_TYPE":"U","ARG_OF_PERICENTER":"38.0023","BSTAR":"0.00040682000000","LAUNCH_DATE":"2022-10-05","REF_FRAME":"TEME","INCLINATION":"53.2154","TLE_LINE2":"2 53995  53.2154 302.9926 0000318  38.0023 322.0992 15.08856829 17054","EPOCH":"2023-01-22T04:25:23.302272","SEMIMAJOR_AXIS":"6917.829","MEAN_ELEMENT_THEORY":"SGP4","MEAN_MOTION_DDOT":"0.0000000000000","CENTER_NAME":"EARTH","RCS_SIZE":"LARGE","REV_AT_EPOCH":"1705","OBJECT_ID":"2022-125AH","PERIAPSIS":"539.474","PERIOD":"95.436","RA_OF_ASC_NODE":"302.9926","COUNTRY_CODE":"US","DECAY_DATE":null,"OBJECT_TYPE":"PAYLOAD","TIME_SYSTEM":"UTC","EPHEMERIS_TYPE":"0","APOAPSIS":"539.914","MEAN_MOTION_DOT":"0.00006196","SITE":"AFWTR","OBJECT_NAME":"STARLINK-5097","TLE_LINE1":"1 53995U 22125AH  23022.18429748  .00006196  00000-0  40682-3 0  9990"},{"TIME_SYSTEM":"UTC","OBJECT_TYPE":"PAYLOAD","DECAY_DATE":null,"SITE":"AFWTR","MEAN_MOTION_DOT":"-0.00005298","EPHEMERIS_TYPE":"0","APOAPSIS":"540.819","TLE_LINE1":"1 53996U 22125AJ  23022.76941033 -.00005298  00000-0 -31515-3 0  9990","OBJECT_NAME":"STARLINK-5131","RCS_SIZE":"LARGE","PERIAPSIS":"538.752","OBJECT_ID":"2022-125AJ","REV_AT_EPOCH":"1714","COUNTRY_CODE":"US","RA_OF_ASC_NODE":"300.2470","PERIOD":"95.438","NORAD_CAT_ID":"53996","CLASSIFICATION_TYPE":"U","REF_FRAME":"TEME","LAUNCH_DATE":"2022-10-05","BSTAR":"-0.00031515000000","ARG_OF_PERICENTER":"108.9893","SEMIMAJOR_AXIS":"6917.921","TLE_LINE2":"2 53996  53.2144 300.2470 0001494 108.9893 251.1261 15.08826761 17140","EPOCH":"2023-01-22T18:27:57.052512","MEAN_ELEMENT_THEORY":"SGP4","INCLINATION":"53.2144","CENTER_NAME":"EARTH","MEAN_MOTION_DDOT":"0.0000000000000","FILE":"3758021","ELEMENT_SET_NO":"999","GP_ID":"223596100","ECCENTRICITY":"0.00014940","MEAN_MOTION":"15.08826761","MEAN_ANOMALY":"251.1261"}];
